[{"OBJECT_NAME":"STARLINK-31025","OBJECT_ID":"2023-203S","EPOCH":"2025-10-09T12:09:54.648000","MEAN_MOTION":15.25922213,"ECCENTRICITY":0.0001234,"INCLINATION":43.0024,"RA_OF_ASC_NODE":200.511,"ARG_OF_PERICENTER":269.5206,"MEAN_ANOMALY":90.5504,"EPHEMERIS_TYPE":0,"CLASSIFICATION_TYPE":"U","NORAD_CAT_ID":58634,"ELEMENT_SET_NO":999,"REV_AT_EPOCH":10167,"BSTAR":-2.3392e-5,"MEAN_MOTION_DOT":-8.7e-6,"MEAN_MOTION_DDOT":0},{"OBJECT_NAME":"STARLINK-31018","OBJECT_ID":"2023-203T","EPOCH":"2025-10-11T01:22:35.802912","MEAN_MOTION":15.27575397,"ECCENTRICITY":0.00014001,"INCLINATION":43.0028,"RA_OF_ASC_NODE":192.4399,"ARG_OF_PERICENTER":266.97,"MEAN_ANOMALY":93.0992,"EPHEMERIS_TYPE":0,"CLASSIFICATION_TYPE":"U","NORAD_CAT_ID":58635,"ELEMENT_SET_NO":999,"REV_AT_EPOCH":10190,"BSTAR":9.2679064e-5,"MEAN_MOTION_DOT":2.289e-5,"MEAN_MOTION_DDOT":0},{"OBJECT_NAME":"STARLINK-31008","OBJECT_ID":"2023-203U","EPOCH":"2025-10-11T03:00:26.368416","MEAN_MOTION":15.2761223,"ECCENTRICITY":0.00015718,"INCLINATION":43.0017,"RA_OF_ASC_NODE":192.0898,"ARG_OF_PERICENTER":283.8031,"MEAN_ANOMALY":76.2646,"EPHEMERIS_TYPE":0,"CLASSIFICATION_TYPE":"U","NORAD_CAT_ID":58636,"ELEMENT_SET_NO":999,"REV_AT_EPOCH":10191,"BSTAR":-2.3792464e-5,"MEAN_MOTION_DOT":-9.18e-6,"MEAN_MOTION_DDOT":0},{"OBJECT_NAME":"STARLINK-31077","OBJECT_ID":"2023-203V","EPOCH":"2025-10-11T02:51:11.536992","MEAN_MOTION":15.27590656,"ECCENTRICITY":0.00013452,"INCLINATION":43.0034,"RA_OF_ASC_NODE":192.038,"ARG_OF_PERICENTER":292.5424,"MEAN_ANOMALY":67.5285,"EPHEMERIS_TYPE":0,"CLASSIFICATION_TYPE":"U","NORAD_CAT_ID":58637,"ELEMENT_SET_NO":999,"REV_AT_EPOCH":10191,"BSTAR":0.00013024425,"MEAN_MOTION_DOT":3.325e-5,"MEAN_MOTION_DDOT":0},{"OBJECT_NAME":"STARLINK-31078","OBJECT_ID":"2023-203W","EPOCH":"2025-10-11T02:45:39.697920","MEAN_MOTION":15.27521861,"ECCENTRICITY":1.923e-5,"INCLINATION":43.0024,"RA_OF_ASC_NODE":192.0067,"ARG_OF_PERICENTER":176.4622,"MEAN_ANOMALY":183.6231,"EPHEMERIS_TYPE":0,"CLASSIFICATION_TYPE":"U","NORAD_CAT_ID":58638,"ELEMENT_SET_NO":999,"REV_AT_EPOCH":10068,"BSTAR":0.0004938129,"MEAN_MOTION_DOT":0.00013327,"MEAN_MOTION_DDOT":0},{"OBJECT_NAME":"STARLINK-31070","OBJECT_ID":"2023-203X","EPOCH":"2025-10-11T03:06:00.677664","MEAN_MOTION":15.27599502,"ECCENTRICITY":8.302e-5,"INCLINATION":43.0001,"RA_OF_ASC_NODE":192.116,"ARG_OF_PERICENTER":281.0837,"MEAN_ANOMALY":78.9921,"EPHEMERIS_TYPE":0,"CLASSIFICATION_TYPE":"U","NORAD_CAT_ID":58639,"ELEMENT_SET_NO":999,"REV_AT_EPOCH":10068,"BSTAR":0.0004821596,"MEAN_MOTION_DOT":0.00013037,"MEAN_MOTION_DDOT":0},{"OBJECT_NAME":"STARLINK-31090","OBJECT_ID":"2023-203Y","EPOCH":"2025-10-11T02:33:53.424576","MEAN_MOTION":15.27581327,"ECCENTRICITY":7.993e-5,"INCLINATION":43.0027,"RA_OF_ASC_NODE":184.1668,"ARG_OF_PERICENTER":303.319,"MEAN_ANOMALY":56.7585,"EPHEMERIS_TYPE":0,"CLASSIFICATION_TYPE":"U","NORAD_CAT_ID":58640,"ELEMENT_SET_NO":999,"REV_AT_EPOCH":10078,"BSTAR":3.3030204e-5,"MEAN_MOTION_DOT":6.47e-6,"MEAN_MOTION_DDOT":0},{"OBJECT_NAME":"STARLINK-31113","OBJECT_ID":"2023-211B","EPOCH":"2025-10-11T02:55:11.872416","MEAN_MOTION":15.27586616,"ECCENTRICITY":0.00012063,"INCLINATION":43.0008,"RA_OF_ASC_NODE":209.6652,"ARG_OF_PERICENTER":321.2321,"MEAN_ANOMALY":38.8444,"EPHEMERIS_TYPE":0,"CLASSIFICATION_TYPE":"U","NORAD_CAT_ID":58668,"ELEMENT_SET_NO":999,"REV_AT_EPOCH":9959,"BSTAR":0.00024318341,"MEAN_MOTION_DOT":6.437e-5,"MEAN_MOTION_DDOT":0},{"OBJECT_NAME":"STARLINK-31128","OBJECT_ID":"2023-211C","EPOCH":"2025-10-11T03:19:14.655648","MEAN_MOTION":15.27624748,"ECCENTRICITY":0.00010998,"INCLINATION":42.9993,"RA_OF_ASC_NODE":209.7826,"ARG_OF_PERICENTER":277.1389,"MEAN_ANOMALY":82.9337,"EPHEMERIS_TYPE":0,"CLASSIFICATION_TYPE":"U","NORAD_CAT_ID":58669,"ELEMENT_SET_NO":999,"REV_AT_EPOCH":9959,"BSTAR":0.00059139641,"MEAN_MOTION_DOT":0.00016069,"MEAN_MOTION_DDOT":0},{"OBJECT_NAME":"STARLINK-31083","OBJECT_ID":"2023-211D","EPOCH":"2025-10-11T02:49:37.563168","MEAN_MOTION":15.27555655,"ECCENTRICITY":8.163e-5,"INCLINATION":43.0022,"RA_OF_ASC_NODE":209.6366,"ARG_OF_PERICENTER":269.5255,"MEAN_ANOMALY":90.5503,"EPHEMERIS_TYPE":0,"CLASSIFICATION_TYPE":"U","NORAD_CAT_ID":58670,"ELEMENT_SET_NO":999,"REV_AT_EPOCH":9959,"BSTAR":0.0005422437,"MEAN_MOTION_DOT":0.00014678,"MEAN_MOTION_DDOT":0},{"OBJECT_NAME":"STARLINK-30828","OBJECT_ID":"2023-211E","EPOCH":"2025-10-11T03:34:02.931456","MEAN_MOTION":15.27604652,"ECCENTRICITY":0.00015635,"INCLINATION":42.9974,"RA_OF_ASC_NODE":209.8573,"ARG_OF_PERICENTER":271.7293,"MEAN_ANOMALY":88.3379,"EPHEMERIS_TYPE":0,"CLASSIFICATION_TYPE":"U","NORAD_CAT_ID":58671,"ELEMENT_SET_NO":999,"REV_AT_EPOCH":9959,"BSTAR":0.00074625962,"MEAN_MOTION_DOT":0.00020346,"MEAN_MOTION_DDOT":0},{"OBJECT_NAME":"STARLINK-31104","OBJECT_ID":"2023-211F","EPOCH":"2025-10-10T18:53:18.722400","MEAN_MOTION":15.27576068,"ECCENTRICITY":0.00017696,"INCLINATION":43.0068,"RA_OF_ASC_NODE":211.4462,"ARG_OF_PERICENTER":263.8341,"MEAN_ANOMALY":96.2309,"EPHEMERIS_TYPE":0,"CLASSIFICATION_TYPE":"U","NORAD_CAT_ID":58672,"ELEMENT_SET_NO":999,"REV_AT_EPOCH":10082,"BSTAR":2.0865096e-5,"MEAN_MOTION_DOT":3.12e-6,"MEAN_MOTION_DDOT":0},{"OBJECT_NAME":"STARLINK-31131","OBJECT_ID":"2023-211G","EPOCH":"2025-10-11T01:23:05.480448","MEAN_MOTION":15.27603176,"ECCENTRICITY":0.00010387,"INCLINATION":42.9986,"RA_OF_ASC_NODE":199.5166,"ARG_OF_PERICENTER":281.3957,"MEAN_ANOMALY":78.6778,"EPHEMERIS_TYPE":0,"CLASSIFICATION_TYPE":"U","NORAD_CAT_ID":58673,"ELEMENT_SET_NO":999,"REV_AT_EPOCH":10098,"BSTAR":0.00041337734,"MEAN_MOTION_DOT":0.00011138,"MEAN_MOTION_DDOT":0},{"OBJECT_NAME":"STARLINK-31124","OBJECT_ID":"2023-211H","EPOCH":"2025-10-11T06:09:02.913408","MEAN_MOTION":15.27637179,"ECCENTRICITY":0.00014865,"INCLINATION":43.0018,"RA_OF_ASC_NODE":208.9552,"ARG_OF_PERICENTER":281.0517,"MEAN_ANOMALY":79.0167,"EPHEMERIS_TYPE":0,"CLASSIFICATION_TYPE":"U","NORAD_CAT_ID":58674,"ELEMENT_SET_NO":999,"REV_AT_EPOCH":9961,"BSTAR":0.0015182033,"MEAN_MOTION_DOT":0.00041826,"MEAN_MOTION_DDOT":0},{"OBJECT_NAME":"STARLINK-31126","OBJECT_ID":"2023-211J","EPOCH":"2025-10-11T04:12:41.240448","MEAN_MOTION":15.27596036,"ECCENTRICITY":0.00013331,"INCLINATION":42.9991,"RA_OF_ASC_NODE":209.1933,"ARG_OF_PERICENTER":218.7922,"MEAN_ANOMALY":141.2835,"EPHEMERIS_TYPE":0,"CLASSIFICATION_TYPE":"U","NORAD_CAT_ID":58675,"ELEMENT_SET_NO":999,"REV_AT_EPOCH":9960,"BSTAR":0.00016060699,"MEAN_MOTION_DOT":4.162e-5,"MEAN_MOTION_DDOT":0},{"OBJECT_NAME":"STARLINK-31066","OBJECT_ID":"2023-211K","EPOCH":"2025-10-11T03:36:58.480704","MEAN_MOTION":15.02534582,"ECCENTRICITY":0.00013942,"INCLINATION":43.004,"RA_OF_ASC_NODE":327.2386,"ARG_OF_PERICENTER":270.0629,"MEAN_ANOMALY":90.0054,"EPHEMERIS_TYPE":0,"CLASSIFICATION_TYPE":"U","NORAD_CAT_ID":58676,"ELEMENT_SET_NO":999,"REV_AT_EPOCH":9949,"BSTAR":0.00010991106,"MEAN_MOTION_DOT":1.281e-5,"MEAN_MOTION_DDOT":0}]
