STARLINK-31025          
1 58634U 23203S   25282.50688250 -.00000870  00000+0 -23392-4 0  9998
2 58634  43.0024 200.5110 0001234 269.5206  90.5504 15.25922213101670
STARLINK-31018          
1 58635U 23203T   25284.05735883  .00002289  00000+0  92679-4 0  9994
2 58635  43.0028 192.4399 0001400 266.9700  93.0992 15.27575397101902
STARLINK-31008          
1 58636U 23203U   25284.12530519 -.00000918  00000+0 -23792-4 0  9991
2 58636  43.0017 192.0898 0001571 283.8031  76.2646 15.27612230101913
STARLINK-31077          
1 58637U 23203V   25284.11888353  .00003325  00000+0  13024-3 0  9992
2 58637  43.0034 192.0380 0001345 292.5424  67.5285 15.27590656101910
STARLINK-31078          
1 58638U 23203W   25284.11504280  .00013327  00000+0  49381-3 0  9995
2 58638  43.0024 192.0067 0000192 176.4622 183.6231 15.27521861100687
STARLINK-31070          
1 58639U 23203X   25284.12917451  .00013037  00000+0  48216-3 0  9999
2 58639  43.0001 192.1160 0000830 281.0837  78.9921 15.27599502100687
STARLINK-31090          
1 58640U 23203Y   25284.10686834  .00000647  00000+0  33030-4 0  9999
2 58640  43.0027 184.1668 0000799 303.3190  56.7585 15.27581327100782
STARLINK-31113          
1 58668U 23211B   25284.12166519  .00006437  00000+0  24318-3 0  9994
2 58668  43.0008 209.6652 0001206 321.2321  38.8444 15.27586616 99593
STARLINK-31128          
1 58669U 23211C   25284.13836407  .00016069  00000+0  59140-3 0  9999
2 58669  42.9993 209.7826 0001099 277.1389  82.9337 15.27624748 99592
STARLINK-31083          
1 58670U 23211D   25284.11779587  .00014678  00000+0  54224-3 0  9996
2 58670  43.0022 209.6366 0000816 269.5255  90.5503 15.27555655 99590
STARLINK-30828          
1 58671U 23211E   25284.14864504  .00020346  00000+0  74626-3 0  9991
2 58671  42.9974 209.8573 0001563 271.7293  88.3379 15.27604652 99592
STARLINK-31104          
1 58672U 23211F   25283.78702225  .00000312  00000+0  20865-4 0  9990
2 58672  43.0068 211.4462 0001769 263.8341  96.2309 15.27576068100828
STARLINK-31131          
1 58673U 23211G   25284.05770232  .00011138  00000+0  41338-3 0  9990
2 58673  42.9986 199.5166 0001038 281.3957  78.6778 15.27603176100982
STARLINK-31124          
1 58674U 23211H   25284.25628372  .00041826  00000+0  15182-2 0  9994
2 58674  43.0018 208.9552 0001486 281.0517  79.0167 15.27637179 99615
STARLINK-31126          
1 58675U 23211J   25284.17547732  .00004162  00000+0  16061-3 0  9996
2 58675  42.9991 209.1933 0001333 218.7922 141.2835 15.27596036 99607
STARLINK-31066          
1 58676U 23211K   25284.15067686  .00001281  00000+0  10991-3 0  9995
2 58676  43.0040 327.2386 0001394 270.0629  90.0054 15.02534582 99493
